full_name,a,e,i,om,w,q,ad,per_y,data_arc,condition_code,n_obs_used,n_del_obs_used,n_dop_obs_used,H
"       (2015 RQ98)",2.377844530155376,.2729324310208401,6.133308670717565,341.721933097031,3.728360924558333,1.728853641950462,3.02683541836029,3.66676760724827,32,6,53,,,19.257
"       (2017 BO134)",2.377847984135669,.13874235949097,4.091105044987762,57.30952643685258,104.5243663405457,2.047939744305839,2.707756223965498,3.66677559659377,4,8,11,,,19.104
"       (2016 GY16)",2.377857338816642,.1452919917836042,5.738457981039941,197.0583280193206,316.8342858634024,2.032373709882711,2.723340967750572,3.66679723478292,20,7,16,,,19.866
"       (2014 QY234)",2.377860186130385,.1832776702548632,2.995660339113625,1.179876680931951,308.2441753946645,1.942051511024612,2.813668861236156,3.66680382087523,28,7,15,,,19.211
"       (2015 TH320)",2.377918521861963,.1435874523630994,3.962984101546126,36.97670605357458,328.3737164194002,2.036479259380777,2.71935778434315,3.66693875752749,51,5,27,,,19.311
"       (2014 HB172)",2.377928123507713,.1952368714103773,5.433385045823865,115.4536728110719,131.1897599321325,1.913668876235318,2.842187370780108,3.6669609672976,22,6,12,,,19.286
"       (2014 UE90)",2.377930623802945,.1570244389589148,5.663803695754758,70.19809670049916,301.8937838352729,2.004537401717065,2.751323845888824,3.66696675079081,30,6,21,,,19.161
"       (2015 TH376)",2.377951573327572,.130513937552368,3.274493743840934,352.735091873014,41.08847046544935,2.067595750183742,2.688307396471402,3.66701520976098,2538,2,26,,,19.24
"       (2003 UK84)",2.377967540908608,.2894312250415936,4.103007434733577,43.57475956651185,305.899389459372,1.689709482434284,3.066225599382932,3.66705214499221,4,9,8,,,19.511
"       (2013 WW10)",2.377982172499848,.2052893303317888,2.156420587966721,254.6376306590782,115.6524399718728,1.889807804766422,2.866156540233275,3.66708599000249,27,7,15,,,19.118
"       (2006 KV115)",2.377994224640579,.1894697241096887,2.374431721551761,104.6121578782493,193.9846016847445,1.927436314963495,2.828552134317663,3.66711386844473,12,7,9,,,19.333
"       (2006 UO96)",2.378081995431826,.1646498321071482,2.39692381951566,111.9264442577171,315.4375016290732,1.986531194146944,2.769632796716708,3.66731689782078,4,9,10,,,19.049
"       (2008 HZ9)",2.378086092079832,.1652476483452452,2.049356085659437,198.4679682493623,37.9975635766093,1.985112957801106,2.771059226358559,3.66732637418427,21,8,10,,,19.072
"       (2011 BP57)",2.378115273808315,.1222130046475764,3.438968394545396,112.754342248797,48.39034596480263,2.087478660797907,2.668751886818724,3.66739387757566,11,8,16,,,19.625
"       (2008 UZ100)",2.378123903473626,.1820699370211116,1.744129560517997,20.04636661931332,35.99526442569551,1.945139034139783,2.81110877280747,3.66741383986099,20,9,10,,,19.419
"       (2012 TB91)",2.378124141414105,.2104550003256333,4.497920720433014,48.28841316713984,318.6825416461634,1.877636024458403,2.878612258369808,3.66741439026938,29,6,12,,,19.054
"       (2011 SR44)",2.378242309144556,.1895081199294727,2.410776114908382,347.5347772293619,345.5989069776143,1.927546080401844,2.828938537887269,3.66768774148622,30,7,21,,,19.046
"       (2015 AG225)",2.378264292874843,.1545016208073939,6.391529426821811,206.0212554321734,205.9674321555422,2.010818604917329,2.745709980832356,3.66773859604639,6,8,9,,,19.331
"       (2003 SH74)",2.378285085218453,.2364080807422442,3.292159508112532,327.821777643233,44.73584293534406,1.816039272764054,2.940530897672852,3.66778669480989,9,8,9,,,19.458
"       (2014 QB40)",2.378312159500581,.2528735100897295,2.862391064101367,234.2672824291984,110.1757577170098,1.776900015638584,2.979724303362577,3.66784932584705,10,7,15,,,19.629
"       (2008 UW286)",2.378314138179203,.2013304046175885,3.425509077597637,93.3128406811304,288.6492698470302,1.899487190431853,2.857141085926554,3.66785390314562,2505,0,29,,,19.0
"       (2006 MM13)",2.378352002155976,.2450193773214702,1.596462932256564,21.41706410740755,211.687344135295,1.795609675536447,2.961094328775506,3.66794149465772,4,9,7,,,19.331
"       (2016 GN30)",2.378352041843018,.1162974989384306,3.049643054901128,10.15544343594056,198.5472549689465,2.101755647781565,2.65494843590447,3.66794158646693,28,6,28,,,19.052
"       (2015 AL85)",2.37837628797167,.1607597885857897,3.554971391860076,93.38389239411809,2.876128831623902,1.996029018739889,2.760723557203451,3.66799767589904,3,8,14,,,19.96
"       (2017 BA24)",2.378381348339574,.1663133825568976,4.202222528600486,255.4767219177988,235.2808528765007,1.982824701286984,2.773937995392163,3.66800938226423,5,8,12,,,19.315
"       (2014 OA154)",2.378471389991882,.1693318346791519,8.697083150602692,106.9816530232074,221.7191644464261,1.975720465792684,2.78122231419108,3.66821768154616,3,9,12,,,19.313
"       (2011 MO4)",2.378473422062438,.514627128483482,5.584186613148693,304.4547988157767,16.70872175754518,1.154446474692165,3.602500369432712,3.66822238251425,1618,2,182,,,19.3
"       (2015 PQ48)",2.378524381813326,.2026126769746034,2.384049713045092,78.81029541001439,265.6962155090026,1.896605189564764,2.860443574061887,3.66834027285834,71,4,22,,,19.1
"       (2007 RE251)",2.378542285798012,.2137881776991543,3.499444352226169,298.3362766762986,39.74915661673128,1.870038064936874,2.88704650665915,3.66838169225612,10,7,9,,,19.344
"       (2015 XH142)",2.37860137670498,.1669077333528535,1.051087046130679,196.6412058918475,225.2700330376712,1.981594412369175,2.775608341040785,3.66851839532141,14,8,13,,,19.41
"       (2015 RF179)",2.378608778916404,.2715729554955457,22.82199631171762,336.8019951888747,46.31184352473248,1.732642962858425,3.024574594974383,3.66853551998771,25,7,13,,,19.433
"       (2015 HT101)",2.378627446044008,.1985846826157094,1.629977454451021,340.9600987065602,293.8540797276873,1.906268469610343,2.850986422477673,3.66857870562356,19,7,14,,,19.12
"       (2010 RN1)",2.378648095661322,.1455886346871234,3.536560407326197,323.595760845466,327.6988053323044,2.032343967012864,2.724952224309779,3.66862647786563,5,9,12,,,19.1
"       (2015 FQ38)",2.378654607621478,.3273709212926194,5.527479080822411,32.6120488119679,243.2776266000615,1.599952257287501,3.157356957955455,3.66864154312425,4055,1,58,,,19.0
"       (2014 QT139)",2.378686492457276,.2320575618373991,2.065769982586931,142.2718013775169,224.9006590838777,1.826694304642086,2.930678680272467,3.6687153082002,33,6,12,,,19.843
"       (2014 EF69)",2.378698946763128,.125558458593861,6.147214741826327,311.707094383522,153.1241763470324,2.080033173548709,2.677364719977547,3.66874412117901,3,8,16,,,19.171
"       (2015 XJ141)",2.37875096130497,.1685262025912645,1.975790810220086,116.5136908781427,301.3572043106674,1.977869094885923,2.779632827724016,3.66886445739561,30,6,22,,,19.332
"       (2014 RO8)",2.378784341887719,.1779591389128072,6.466065870831633,131.8194020715976,213.7687395677343,1.955457928746112,2.802110755029326,3.6689416844353,18,7,14,,,19.358
"       (2011 CO11)",2.378795256847903,.1727020827950787,11.42383175007423,313.2006706325157,172.2108669841086,1.967972361447216,2.78961815224859,3.66896693666034,26,6,23,,,19.247
"       (2016 WD50)",2.378803407357305,.1942890964090986,1.82856825551101,122.9345081005122,253.7338655668595,1.916627842806969,2.840978971907641,3.66898579324859,4041,0,62,,,19.0
"       (2017 BO5)",2.378804332151863,.3485499408034144,6.512984897033798,100.5320405375906,46.01943653948653,1.549672222997426,3.207936441306301,3.66898793280649,4096,1,118,,,19.2
"       (2014 SO97)",2.378810958637529,.1872991660938113,1.078907036825867,353.6019324864224,317.9951617076857,1.9332616497899,2.824360267485158,3.66900326352068,13,8,14,,,19.299
"       (2014 WM162)",2.378812339789302,.2327654726829161,1.977058341805367,345.2266012738812,48.6359642496221,1.825106961094291,2.932517718484312,3.66900645888877,57,4,22,,,19.511
"       (2014 QT119)",2.378828720766063,.195663293880971,.9974272848277168,335.5166883629122,39.51229314895923,1.913379257682319,2.844278183849808,3.66904435722065,35,6,26,,,19.059
"       (2014 ON105)",2.378967222129549,.1990299868015504,3.797349890150636,85.4272529723695,242.6663020508553,1.905481407307784,2.852453036951314,3.66936479330649,7,8,17,,,19.68
"       (2014 TW19)",2.37898188597688,.2964614247340789,5.303249825265301,24.24171765817213,352.3732502254186,1.673705526643608,3.084258245310151,3.66939872005896,4070,1,76,,,19.2
"       (2006 BD29)",2.379016045142995,.1314239632694958,2.885421690382779,135.6814678219175,11.94086240971428,2.066356327808581,2.691675762477409,3.66947775221833,33,6,19,,,19.015
"       (2015 AE83)",2.379046134980489,.1171475306323019,2.278900245021941,76.45461203761889,71.69103846063457,2.100346755007203,2.657745514953775,3.66954736986883,28,6,14,,,19.458
"       (2010 RC88)",2.379067959044369,.2603688459536944,4.509953074609846,140.6323353297801,232.3410272534702,1.759632780102576,2.998503137986163,3.66959786360582,13,8,12,,,19.491
"       (2005 VB12)",2.379072978249487,.1949011848894601,3.213073338869483,242.335613694384,147.5466845367953,1.915388835850165,2.842757120648808,3.66960947643555,8,9,10,,,19.142
"       (2017 XN6)",2.379121938217774,.2103283188129293,8.988230308517956,253.9431818587254,161.7294185499287,1.878725220701471,2.879518655734076,3.66972275473107,4042,2,21,,,19.6
"       (2001 FZ212)",2.37914091511249,.1213793528657471,1.171602101518741,152.6079507670952,191.6547601566484,2.090362330459715,2.667919499765266,3.66976666173733,10,8,16,,,19.66
"       (2015 UF2)",2.379146469946492,.2066436792672983,1.852350668465993,137.0419473519307,192.6147725295177,1.887510889880944,2.87078205001204,3.66977951403818,40,6,20,,,19.505
"       (2004 HY22)",2.37915671892068,.2398357241572411,7.075726569144853,207.0347873045611,47.92028483057084,1.808549944354773,2.949763493486587,3.66980322727935,13,8,11,,,19.212
"       (1999 HW1)",2.379180715318515,.4550200897496476,23.69985158281094,37.86604146073284,136.3635950836962,1.296605692703654,3.461755737933377,3.66985874838873,4034,0,71,,,19.8
